{"type": "FeatureCollection", "features": [ {"type": "Feature", "properties": {"norad_id": 30998, "name": "FENGYUN 1C DEB", "group": "fengyun-1c-debris", "lat": -64.5870049425466, "lon": -134.69552676923396, "alt_km": 732.9825781682794, "timestamp": "2025-12-07T03:52:32.777161+00:00", "meta": {"OBJECT_NAME": "FENGYUN 1C DEB", "OBJECT_ID": "1999-025BCQ", "EPOCH": "2025-12-06T05:17:55.303008", "MEAN_MOTION": 14.47717057, "ECCENTRICITY": 0.00127692, "INCLINATION": 98.8293, "RA_OF_ASC_NODE": 63.4188, "ARG_OF_PERICENTER": 211.5074, "MEAN_ANOMALY": 174.4213, "EPHEMERIS_TYPE": 0, "CLASSIFICATION_TYPE": "U", "NORAD_CAT_ID": 30998, "ELEMENT_SET_NO": 999, "REV_AT_EPOCH": 97096, "BSTAR": 0.00404578, "MEAN_MOTION_DOT": 0.00014935, "MEAN_MOTION_DDOT": 0}, "tle": {"line1": "1 30998U 99025BCQ 25340.22077897  .00014935  00000+0  40458-2 0  9994", "line2": "2 30998  98.8293  63.4188 0012769 211.5074 174.4213 14.47717057970961"}}, "geometry": {"type": "Point", "coordinates": [-134.69552676923396, -64.5870049425466]}}, {"type": "Feature", "properties": {"norad_id": 30999, "name": "FENGYUN 1C DEB", "group": "fengyun-1c-debris", "lat": 30.279809411972632, "lon": -20.264187323523082, "alt_km": 768.9281734989609, "timestamp": "2025-12-07T03:52:32.777171+00:00", "meta": {"OBJECT_NAME": "FENGYUN 1C DEB", "OBJECT_ID": "1999-025BCR", "EPOCH": "2025-12-06T05:47:24.481248", "MEAN_MOTION": 14.583648, "ECCENTRICITY": 0.01133387, "INCLINATION": 99.0904, "RA_OF_ASC_NODE": 153.3661, "ARG_OF_PERICENTER": 357.6849, "MEAN_ANOMALY": 2.3808, "EPHEMERIS_TYPE": 0, "CLASSIFICATION_TYPE": "U", "NORAD_CAT_ID": 30999, "ELEMENT_SET_NO": 999, "REV_AT_EPOCH": 98736, "BSTAR": 0.0009679349, "MEAN_MOTION_DOT": 4.84e-05, "MEAN_MOTION_DDOT": 0}, "tle": {"line1": "1 30999U 99025BCR 25340.24125557  .00004840  00000+0  96793-3 0  9992", "line2": "2 30999  99.0904 153.3661 0113338 357.6849   2.3808 14.58364800987362"}}, "geometry": {"type": "Point", "coordinates": [-20.264187323523082, 30.279809411972632]}}, {"type": "Feature", "properties": {"norad_id": 31000, "name": "FENGYUN 1C DEB", "group": "fengyun-1c-debris", "lat": 45.651973817736824, "lon": 2.8791428339453606, "alt_km": 759.163060926573, "timestamp": "2025-12-07T03:52:32.777181+00:00", "meta": {"OBJECT_NAME": "FENGYUN 1C DEB", "OBJECT_ID": "1999-025BCS", "EPOCH": "2025-12-04T21:42:51.154272", "MEAN_MOTION": 14.09617577, "ECCENTRICITY": 0.0165715, "INCLINATION": 97.5669, "RA_OF_ASC_NODE": 8.7953, "ARG_OF_PERICENTER": 89.0211, "MEAN_ANOMALY": 32.828, "EPHEMERIS_TYPE": 0, "CLASSIFICATION_TYPE": "U", "NORAD_CAT_ID": 31000, "ELEMENT_SET_NO": 999, "REV_AT_EPOCH": 69846, "BSTAR": 0.0010417, "MEAN_MOTION_DOT": 2.041e-05, "MEAN_MOTION_DDOT": 0}, "tle": {"line1": "1 31000U 99025BCS 25338.90475873  .00002041  00000+0  10417-2 0  9994", "line2": "2 31000  97.5669   8.7953 0165715  89.0211  32.8280 14.09617577698469"}}, "geometry": {"type": "Point", "coordinates": [2.8791428339453606, 45.651973817736824]}}, {"type": "Feature", "properties": {"norad_id": 31001, "name": "FENGYUN 1C DEB", "group": "fengyun-1c-debris", "lat": -48.43983447242124, "lon": 22.9389524334241, "alt_km": 703.0440281789715, "timestamp": "2025-12-07T03:52:32.777192+00:00", "meta": {"OBJECT_NAME": "FENGYUN 1C DEB", "OBJECT_ID": "1999-025BCT", "EPOCH": "2025-12-06T10:10:52.401504", "MEAN_MOTION": 14.42834365, "ECCENTRICITY": 0.01465743, "INCLINATION": 99.2727, "RA_OF_ASC_NODE": 212.7559, "ARG_OF_PERICENTER": 171.0705, "MEAN_ANOMALY": 189.3143, "EPHEMERIS_TYPE": 0, "CLASSIFICATION_TYPE": "U", "NORAD_CAT_ID": 31001, "ELEMENT_SET_NO": 999, "REV_AT_EPOCH": 98115, "BSTAR": 0.00082052572, "MEAN_MOTION_DOT": 3.061e-05, "MEAN_MOTION_DDOT": 0}, "tle": {"line1": "1 31001U 99025BCT 25340.42421761  .00003061  00000+0  82053-3 0  9991", "line2": "2 31001  99.2727 212.7559 0146574 171.0705 189.3143 14.42834365981155"}}, "geometry": {"type": "Point", "coordinates": [22.9389524334241, -48.43983447242124]}}, {"type": "Feature", "properties": {"norad_id": 31002, "name": "FENGYUN 1C DEB", "group": "fengyun-1c-debris", "lat": 66.10577614687902, "lon": -27.392391637148133, "alt_km": 858.6052269018437, "timestamp": "2025-12-07T03:52:32.777202+00:00", "meta": {"OBJECT_NAME": "FENGYUN 1C DEB", "OBJECT_ID": "1999-025BCU", "EPOCH": "2025-12-06T07:00:57.737088", "MEAN_MOTION": 13.9919529, "ECCENTRICITY": 0.00993182, "INCLINATION": 98.8863, "RA_OF_ASC_NODE": 352.4441, "ARG_OF_PERICENTER": 5.4949, "MEAN_ANOMALY": 5.6296, "EPHEMERIS_TYPE": 0, "CLASSIFICATION_TYPE": "U", "NORAD_CAT_ID": 31002, "ELEMENT_SET_NO": 999, "REV_AT_EPOCH": 95515, "BSTAR": 0.00047255564, "MEAN_MOTION_DOT": 6.72e-06, "MEAN_MOTION_DDOT": 0}, "tle": {"line1": "1 31002U 99025BCU 25340.29233492  .00000672  00000+0  47256-3 0  9990", "line2": "2 31002  98.8863 352.4441 0099318   5.4949   5.6296 13.99195290955155"}}, "geometry": {"type": "Point", "coordinates": [-27.392391637148133, 66.10577614687902]}}, {"type": "Feature", "properties": {"norad_id": 31003, "name": "FENGYUN 1C DEB", "group": "fengyun-1c-debris", "lat": -81.03106430115655, "lon": 138.5100299329658, "alt_km": 794.8042071966483, "timestamp": "2025-12-07T03:52:32.777223+00:00", "meta": {"OBJECT_NAME": "FENGYUN 1C DEB", "OBJECT_ID": "1999-025BCV", "EPOCH": "2025-12-05T03:24:30.054528", "MEAN_MOTION": 14.24621058, "ECCENTRICITY": 0.0041229, "INCLINATION": 98.8447, "RA_OF_ASC_NODE": 55.8828, "ARG_OF_PERICENTER": 235.6299, "MEAN_ANOMALY": 124.0977, "EPHEMERIS_TYPE": 0, "CLASSIFICATION_TYPE": "U", "NORAD_CAT_ID": 31003, "ELEMENT_SET_NO": 999, "REV_AT_EPOCH": 96401, "BSTAR": 0.0030130866, "MEAN_MOTION_DOT": 7.024e-05, "MEAN_MOTION_DDOT": 0}, "tle": {"line1": "1 31003U 99025BCV 25339.14201452  .00007024  00000+0  30131-2 0  9995", "line2": "2 31003  98.8447  55.8828 0041229 235.6299 124.0977 14.24621058964012"}}, "geometry": {"type": "Point", "coordinates": [138.5100299329658, -81.03106430115655]}}, {"type": "Feature", "properties": {"norad_id": 31005, "name": "FENGYUN 1C DEB", "group": "fengyun-1c-debris", "lat": -52.50352618904548, "lon": 126.7713201096867, "alt_km": 848.983238971934, "timestamp": "2025-12-07T03:52:32.777234+00:00", "meta": {"OBJECT_NAME": "FENGYUN 1C DEB", "OBJECT_ID": "1999-025BCX", "EPOCH": "2025-12-06T09:07:54.895872", "MEAN_MOTION": 13.83255051, "ECCENTRICITY": 0.01803523, "INCLINATION": 98.6135, "RA_OF_ASC_NODE": 114.6618, "ARG_OF_PERICENTER": 342.8887, "MEAN_ANOMALY": 37.9549, "EPHEMERIS_TYPE": 0, "CLASSIFICATION_TYPE": "U", "NORAD_CAT_ID": 31005, "ELEMENT_SET_NO": 999, "REV_AT_EPOCH": 94193, "BSTAR": 0.001699903, "MEAN_MOTION_DOT": 2.075e-05, "MEAN_MOTION_DDOT": 0}, "tle": {"line1": "1 31005U 99025BCX 25340.38049648  .00002075  00000+0  16999-2 0  9999", "line2": "2 31005  98.6135 114.6618 0180352 342.8887  37.9549 13.83255051941935"}}, "geometry": {"type": "Point", "coordinates": [126.7713201096867, -52.50352618904548]}}, {"type": "Feature", "properties": {"norad_id": 31007, "name": "FENGYUN 1C DEB", "group": "fengyun-1c-debris", "lat": -55.35776858591611, "lon": -15.010547778200475, "alt_km": 722.2022877768823, "timestamp": "2025-12-07T03:52:32.777245+00:00", "meta": {"OBJECT_NAME": "FENGYUN 1C DEB", "OBJECT_ID": "1999-025BCZ", "EPOCH": "2025-12-05T22:29:40.699968", "MEAN_MOTION": 14.58430465, "ECCENTRICITY": 0.00678396, "INCLINATION": 98.0872, "RA_OF_ASC_NODE": 331.9227, "ARG_OF_PERICENTER": 58.845, "MEAN_ANOMALY": 301.9379, "EPHEMERIS_TYPE": 0, "CLASSIFICATION_TYPE": "U", "NORAD_CAT_ID": 31007, "ELEMENT_SET_NO": 999, "REV_AT_EPOCH": 97995, "BSTAR": 0.0032392105, "MEAN_MOTION_DOT": 0.0001549, "MEAN_MOTION_DDOT": 0}, "tle": {"line1": "1 31007U 99025BCZ 25339.93727662  .00015490  00000+0  32392-2 0  9999", "line2": "2 31007  98.0872 331.9227 0067839  58.8450 301.9379 14.58430465979958"}}, "geometry": {"type": "Point", "coordinates": [-15.010547778200475, -55.35776858591611]}}, {"type": "Feature", "properties": {"norad_id": 31009, "name": "FENGYUN 1C DEB", "group": "fengyun-1c-debris", "lat": -57.60914739750921, "lon": -8.569148492389555, "alt_km": 873.9234396410684, "timestamp": "2025-12-07T03:52:32.777255+00:00", "meta": {"OBJECT_NAME": "FENGYUN 1C DEB", "OBJECT_ID": "1999-025BDB", "EPOCH": "2025-12-06T11:44:03.827616", "MEAN_MOTION": 14.0036007, "ECCENTRICITY": 0.00527167, "INCLINATION": 98.8978, "RA_OF_ASC_NODE": 336.4802, "ARG_OF_PERICENTER": 255.0112, "MEAN_ANOMALY": 257.1813, "EPHEMERIS_TYPE": 0, "CLASSIFICATION_TYPE": "U", "NORAD_CAT_ID": 31009, "ELEMENT_SET_NO": 999, "REV_AT_EPOCH": 95773, "BSTAR": 0.00029054252, "MEAN_MOTION_DOT": 3.92e-06, "MEAN_MOTION_DDOT": 0}, "tle": {"line1": "1 31009U 99025BDB 25340.48893319  .00000392  00000+0  29054-3 0  9993", "line2": "2 31009  98.8978 336.4802 0052716 255.0112 257.1813 14.00360070957736"}}, "geometry": {"type": "Point", "coordinates": [-8.569148492389555, -57.60914739750921]}}, {"type": "Feature", "properties": {"norad_id": 31010, "name": "FENGYUN 1C DEB", "group": "fengyun-1c-debris", "lat": -30.970834104677422, "lon": -60.86697241109395, "alt_km": 887.0983090524041, "timestamp": "2025-12-07T03:52:32.777265+00:00", "meta": {"OBJECT_NAME": "FENGYUN 1C DEB", "OBJECT_ID": "1999-025BDC", "EPOCH": "2025-12-06T08:21:29.015136", "MEAN_MOTION": 14.25651238, "ECCENTRICITY": 0.01131148, "INCLINATION": 101.728, "RA_OF_ASC_NODE": 125.2104, "ARG_OF_PERICENTER": 11.3716, "MEAN_ANOMALY": 348.9969, "EPHEMERIS_TYPE": 0, "CLASSIFICATION_TYPE": "U", "NORAD_CAT_ID": 31010, "ELEMENT_SET_NO": 999, "REV_AT_EPOCH": 95538, "BSTAR": 0.0057393687, "MEAN_MOTION_DOT": 0.00014514, "MEAN_MOTION_DDOT": 0}, "tle": {"line1": "1 31010U 99025BDC 25340.34825249  .00014514  00000+0  57394-2 0  9995", "line2": "2 31010 101.7280 125.2104 0113114  11.3716 348.9969 14.25651238955386"}}, "geometry": {"type": "Point", "coordinates": [-60.86697241109395, -30.970834104677422]}}]}